NORAD_CAT_ID,OBJECT_NAME,OBJECT_TYPE,EPOCH,MEAN_MOTION,ECCENTRICITY,INCLINATION,RA_OF_ASC_NODE,ARG_OF_PERICENTER,MEAN_ANOMALY,BSTAR,MEAN_MOTION_DOT,MEAN_MOTION_DDOT,TLE_LINE0,TLE_LINE1,TLE_LINE2,SEMIMAJOR_AXIS,PERIOD,APOGEE,PERIGEE,DECAYED
54764.0,STARLINK-5458,PAYLOAD,2023-11-22 01:08:48,15.08846051,0.0001491,53.2172,208.8606,86.2708,273.8455,0.00010337,1.358e-05,0.0,0 STARLINK-5458,1 54764U 22175G   23326.04778471  .00001358  00000-0  10337-3 0  9991,2 54764  53.2172 208.8606 0001491  86.2708 273.8455 15.08846051 53318,6917.862,95.437,540.758,538.695,0.0
54764.0,STARLINK-5458,PAYLOAD,2023-11-22 20:13:26,15.0884275,0.0001688,53.2174,205.2919,95.0139,265.1046,0.00011742,1.581e-05,0.0,0 STARLINK-5458,1 54764U 22175G   23326.84266615  .00001581  00000-0  11742-3 0  9990,2 54764  53.2174 205.2919 0001688  95.0139 265.1046 15.08842750 53437,6917.872,95.437,540.905,538.569,0.0
54764.0,STARLINK-5458,PAYLOAD,2023-11-22 23:24:12,15.08846944,0.0001578,53.2166,204.6972,82.8732,277.2439,0.00013709,1.895e-05,0.0,0 STARLINK-5458,1 54764U 22175G   23326.97514409  .00001895  00000-0  13709-3 0  9994,2 54764  53.2166 204.6972 0001578  82.8732 277.2439 15.08846944 51292,6917.859,95.437,540.816,538.633,0.0
54764.0,STARLINK-5458,PAYLOAD,2023-11-23 20:04:14,15.08830693,0.0001724,53.2176,200.8307,71.6435,288.4745,-2.6733e-05,-7.13e-06,0.0,0 STARLINK-5458,1 54764U 22175G   23327.83627616 -.00000713  00000-0 -26733-4 0  9997,2 54764  53.2176 200.8307 0001724  71.6435 288.4745 15.08830693 51425,6917.909,95.438,540.966,538.581,0.0
54764.0,STARLINK-5458,PAYLOAD,2023-11-23 21:39:37,15.08832799,0.0001578,53.2171,200.5334,72.4305,287.6859,-9.1904e-05,-1.75e-05,0.0,0 STARLINK-5458,1 54764U 22175G   23327.90251500 -.00001750  00000-0 -91904-4 0  9994,2 54764  53.2171 200.5334 0001578  72.4305 287.6859 15.08832799 53595,6917.902,95.438,540.859,538.676,0.0
54764.0,STARLINK-5458,PAYLOAD,2023-11-23 23:15:00,15.08832757,0.0001545,53.2173,200.2366,81.7109,278.4059,-9.0028e-05,-1.72e-05,0.0,0 STARLINK-5458,1 54764U 22175G   23327.96875491 -.00001720  00000-0 -90028-4 0  9994,2 54764  53.2173 200.2366 0001545  81.7109 278.4059 15.08832757 53604,6917.903,95.438,540.836,538.699,0.0
54764.0,STARLINK-5458,PAYLOAD,2023-11-24 21:30:24,15.08843273,0.0001482,53.216,196.0753,87.5961,272.5201,0.00010311,1.354e-05,0.0,0 STARLINK-5458,1 54764U 22175G   23328.89611468  .00001354  00000-0  10311-3 0  9996,2 54764  53.2160 196.0753 0001482  87.5961 272.5201 15.08843273 53746,6917.87,95.437,540.761,538.71,0.0
54764.0,STARLINK-5458,PAYLOAD,2023-11-24 23:05:48,15.08824703,0.0001769,53.2172,195.779,82.2706,277.8487,0.00078598,0.00012238,0.0,0 STARLINK-5458,1 54764U 22175G   23328.96236661  .00012238  00000-0  78598-3 0  9996,2 54764  53.2172 195.7790 0001769  82.2706 277.8487 15.08824703 51595,6917.927,95.439,541.016,538.568,0.0
54764.0,STARLINK-5458,PAYLOAD,2023-11-25 21:21:11,15.08853807,0.0001438,53.2148,191.6137,88.3204,271.7952,0.00045189,6.914e-05,0.0,0 STARLINK-5458,1 54764U 22175G   23329.88971337  .00006914  00000-0  45189-3 0  9998,2 54764  53.2148 191.6137 0001438  88.3204 271.7952 15.08853807 53893,6917.838,95.437,540.698,538.708,0.0
54764.0,STARLINK-5458,PAYLOAD,2023-11-26 00:31:57,15.08863514,0.0001449,53.2145,191.0173,97.5312,262.5845,0.00059662,9.226e-05,0.0,0 STARLINK-5458,1 54764U 22175G   23330.02218819  .00009226  00000-0  59662-3 0  9995,2 54764  53.2145 191.0173 0001449  97.5312 262.5845 15.08863514 51756,6917.809,95.436,540.676,538.671,0.0
54764.0,STARLINK-5458,PAYLOAD,2023-11-26 19:36:35,15.08842877,0.0001413,53.2146,187.4504,96.2647,263.8506,5.8948e-05,6.5e-06,0.0,0 STARLINK-5458,1 54764U 22175G   23330.81707389  .00000650  00000-0  58948-4 0  9996,2 54764  53.2146 187.4504 0001413  96.2647 263.8506 15.08842877 51872,6917.872,95.437,540.714,538.759,0.0
54764.0,STARLINK-5458,PAYLOAD,2023-11-26 21:11:58,15.08842242,0.0001406,53.2146,187.153,96.5122,263.6031,4.0652e-05,3.59e-06,0.0,0 STARLINK-5458,1 54764U 22175G   23330.88331371  .00000359  00000-0  40652-4 0  9996,2 54764  53.2146 187.1530 0001406  96.5122 263.6031 15.08842242 54040,6917.874,95.437,540.711,538.766,0.0
54764.0,STARLINK-5458,PAYLOAD,2023-11-27 14:41:13,15.08835774,0.0001465,53.2151,183.8787,111.5628,248.552,-8.989e-05,-1.718e-05,0.0,0 STARLINK-5458,1 54764U 22175G   23331.61195660 -.00001718  00000-0 -89890-4 0  9996,2 54764  53.2151 183.8787 0001465 111.5628 248.5520 15.08835774 54156,6917.893,95.438,540.772,538.745,0.0
54764.0,STARLINK-5458,PAYLOAD,2023-11-27 21:02:45,15.08839718,0.0001453,53.2152,182.6895,110.153,249.9618,-4.3277e-05,-9.77e-06,0.0,0 STARLINK-5458,1 54764U 22175G   23331.87691606 -.00000977  00000-0 -43277-4 0  9990,2 54764  53.2152 182.6895 0001453 110.1530 249.9618 15.08839718 54197,6917.881,95.438,540.751,538.741,0.0
54764.0,STARLINK-5458,PAYLOAD,2023-11-28 19:18:09,15.08843163,0.0001434,53.2154,178.5259,109.5845,250.5303,0.00019593,2.832e-05,0.0,0 STARLINK-5458,1 54764U 22175G   23332.80427518  .00002832  00000-0  19593-3 0  9996,2 54764  53.2154 178.5259 0001434 109.5845 250.5303 15.08843163 54331,6917.871,95.437,540.728,538.744,0.0
54764.0,STARLINK-5458,PAYLOAD,2023-11-29 12:47:23,15.08843939,0.0001497,53.216,175.2577,111.2812,248.834,0.00019386,2.799e-05,0.0,0 STARLINK-5458,1 54764U 22175G   23333.53291425  .00002799  00000-0  19386-3 0  9995,2 54764  53.2160 175.2577 0001497 111.2812 248.8340 15.08843939 52282,6917.868,95.437,540.769,538.698,0.0
54764.0,STARLINK-5458,PAYLOAD,2023-12-01 01:21:17,15.08833953,0.0001298,53.2165,168.4156,96.2912,263.8228,-4.7121e-05,-1.038e-05,0.0,0 STARLINK-5458,1 54764U 22175G   23335.05644800 -.00001038  00000-0 -47121-4 0  9999,2 54764  53.2165 168.4156 0001298  96.2912 263.8228 15.08833953 52519,6917.899,95.438,540.662,538.866,0.0
54764.0,STARLINK-5458,PAYLOAD,2023-12-01 20:25:54,15.08839353,0.0001489,53.2161,164.8505,93.2707,266.8456,0.00011778,1.587e-05,0.0,0 STARLINK-5458,1 54764U 22175G   23335.85132408  .00001587  00000-0  11778-3 0  9998,2 54764  53.2161 164.8505 0001489  93.2707 266.8456 15.08839353 54792,6917.882,95.438,540.777,538.717,0.0
54764.0,STARLINK-5458,PAYLOAD,2023-12-02 12:19:45,15.08848762,0.000158,53.2164,161.8744,85.1466,274.9707,0.00037369,5.666e-05,0.0,0 STARLINK-5458,1 54764U 22175G   23336.51372249  .00005666  00000-0  37369-3 0  9997,2 54764  53.2164 161.8744 0001580  85.1466 274.9707 15.08848762 54895,6917.854,95.437,540.812,538.626,0.0
54764.0,STARLINK-5458,PAYLOAD,2023-12-02 20:16:40,15.0885348,0.0001563,53.216,160.3902,83.7359,276.3811,0.00038648,5.87e-05,0.0,0 STARLINK-5458,1 54764U 22175G   23336.84491894  .00005870  00000-0  38648-3 0  9999,2 54764  53.2160 160.3902 0001563  83.7359 276.3811 15.08853480 54948,6917.839,95.437,540.785,538.623,0.0
54764.0,STARLINK-5458,PAYLOAD,2023-12-03 12:10:32,15.08841749,0.000186,53.2164,157.4162,62.4517,297.6664,5.6794e-05,6.16e-06,0.0,0 STARLINK-5458,1 54764U 22175G   23337.50732479  .00000616  00000-0  56794-4 0  9996,2 54764  53.2164 157.4162 0001860  62.4517 297.6664 15.08841749 52885,6917.875,95.437,541.027,538.453,0.0
54764.0,STARLINK-5458,PAYLOAD,2023-12-04 12:01:19,15.08839791,0.0001475,53.2172,152.9528,112.2195,247.8954,-0.00010665,-1.985e-05,0.0,0 STARLINK-5458,1 54764U 22175G   23338.50092576 -.00001985  00000-0 -10665-3 0  9992,2 54764  53.2172 152.9528 0001475 112.2195 247.8954 15.08839791 53039,6917.881,95.438,540.766,538.726,0.0
54764.0,STARLINK-5458,PAYLOAD,2023-12-05 11:52:07,15.08841216,0.00014,53.2172,148.4946,95.6916,264.4236,0.00023973,3.53e-05,0.0,0 STARLINK-5458,1 54764U 22175G   23339.49452683  .00003530  00000-0  23973-3 0  9992,2 54764  53.2172 148.4946 0001400  95.6916 264.4236 15.08841216 55345,6917.877,95.437,540.71,538.773,0.0
54764.0,STARLINK-5458,PAYLOAD,2023-12-05 19:49:02,15.08844868,0.0001449,53.2175,147.0082,92.5809,267.5349,0.00024515,3.616e-05,0.0,0 STARLINK-5458,1 54764U 22175G   23339.82572491  .00003616  00000-0  24515-3 0  9997,2 54764  53.2175 147.0082 0001449  92.5809 267.5349 15.08844868 53235,6917.866,95.437,540.733,538.728,0.0
54764.0,STARLINK-5458,PAYLOAD,2023-12-06 11:42:54,15.08839911,0.0001567,53.2159,144.034,73.2475,286.8689,6.9477e-05,8.18e-06,0.0,0 STARLINK-5458,1 54764U 22175G   23340.48812736  .00000818  00000-0  69477-4 0  9998,2 54764  53.2159 144.0340 0001567  73.2475 286.8689 15.08839911 53332,6917.881,95.438,540.83,538.662,0.0
54764.0,STARLINK-5458,PAYLOAD,2023-12-07 11:33:41,15.08840433,0.0001549,53.2181,139.5744,91.179,268.938,1.8868e-05,1.2e-07,0.0,0 STARLINK-5458,1 54764U 22175G   23341.48172518  .00000012  00000-0  18868-4 0  9990,2 54764  53.2181 139.5744 0001549  91.1790 268.9380 15.08840433 55649,6917.879,95.438,540.816,538.672,0.0
54764.0,STARLINK-5458,PAYLOAD,2023-12-08 12:59:51,15.08840761,0.0001427,53.2154,134.8157,77.4935,282.6217,2.1659e-05,5.7e-07,0.0,0 STARLINK-5458,1 54764U 22175G   23342.54156475  .00000057  00000-0  21659-4 0  9993,2 54764  53.2154 134.8157 0001427  77.4935 282.6217 15.08840761 55802,6917.878,95.438,540.73,538.756,0.0
54764.0,STARLINK-5458,PAYLOAD,2023-12-09 09:39:52,15.08839167,0.0001148,53.2169,130.9488,90.3148,269.7975,3.3354e-05,2.43e-06,0.0,0 STARLINK-5458,1 54764U 22175G   23343.40268870  .00000243  00000-0  33354-4 0  9994,2 54764  53.2169 130.9488 0001148  90.3148 269.7975 15.08839167 55931,6917.883,95.438,540.542,538.954,0.0
54764.0,STARLINK-5458,PAYLOAD,2023-12-10 09:30:39,15.08842303,0.0001519,53.2153,126.4891,91.031,269.0856,4.4269e-05,4.17e-06,0.0,0 STARLINK-5458,1 54764U 22175G   23344.39628567  .00000417  00000-0  44269-4 0  9996,2 54764  53.2153 126.4891 0001519  91.0310 269.0856 15.08842303 53927,6917.873,95.437,540.789,538.688,0.0
54764.0,STARLINK-5458,PAYLOAD,2023-12-10 14:16:48,15.0884264,0.0001772,53.2146,125.5961,101.2543,258.8648,4.4202e-05,4.15e-06,0.0,0 STARLINK-5458,1 54764U 22175G   23344.59500452  .00000415  00000-0  44202-4 0  9995,2 54764  53.2146 125.5961 0001772 101.2543 258.8648 15.08842640 56113,6917.872,95.437,540.963,538.511,0.0
